start=new Date('2023-06-12T00:00:00.000Z').valueOf();
sats=[{"OBJECT_NAME":"STARLINK-6081","TLE_LINE2":"2 56108  43.0010 202.8530 0001325 277.7058  82.3634 15.02537190 11356","GP_ID":"233729725","RCS_SIZE":"LARGE","REF_FRAME":"TEME","OBJECT_TYPE":"PAYLOAD","MEAN_ELEMENT_THEORY":"SGP4","FILE":"3930737","EPHEMERIS_TYPE":"0","EPOCH":"2023-06-11T19:26:39.050880","ARG_OF_PERICENTER":"277.7058","BSTAR":"0.00008224100000","MEAN_MOTION":"15.02537190","PERIOD":"95.838","TLE_LINE1":"1 56108U 23046R   23162.81017420  .00000908  00000-0  82241-4 0  9990","ELEMENT_SET_NO":"999","COUNTRY_CODE":"US","APOAPSIS":"559.997","DECAY_DATE":null,"CLASSIFICATION_TYPE":"U","SEMIMAJOR_AXIS":"6937.213","INCLINATION":"43.0010","TIME_SYSTEM":"UTC","SITE":"AFETR","REV_AT_EPOCH":"1135","ECCENTRICITY":"0.00013250","MEAN_MOTION_DOT":"0.00000908","PERIAPSIS":"558.159","RA_OF_ASC_NODE":"202.8530","MEAN_ANOMALY":"82.3634","NORAD_CAT_ID":"56108","LAUNCH_DATE":"2023-03-29","MEAN_MOTION_DDOT":"0.0000000000000","OBJECT_ID":"2023-046R","CENTER_NAME":"EARTH"},{"EPHEMERIS_TYPE":"0","EPOCH":"2023-06-11T19:10:39.991872","REF_FRAME":"TEME","OBJECT_TYPE":"PAYLOAD","FILE":"3930737","MEAN_ELEMENT_THEORY":"SGP4","RCS_SIZE":"LARGE","TLE_LINE2":"2 56109  43.0009 202.7711 0001460 275.3609  84.7066 15.02538057 11359","OBJECT_NAME":"STARLINK-6083","GP_ID":"233728978","PERIOD":"95.838","MEAN_MOTION":"15.02538057","ARG_OF_PERICENTER":"275.3609","BSTAR":"0.00004923500000","SITE":"AFETR","REV_AT_EPOCH":"1135","TIME_SYSTEM":"UTC","DECAY_DATE":null,"SEMIMAJOR_AXIS":"6937.210","CLASSIFICATION_TYPE":"U","INCLINATION":"43.0009","TLE_LINE1":"1 56109U 23046S   23162.79907398  .00000462  00000-0  49235-4 0  9991","ELEMENT_SET_NO":"999","COUNTRY_CODE":"US","APOAPSIS":"560.088","MEAN_MOTION_DDOT":"0.0000000000000","OBJECT_ID":"2023-046S","CENTER_NAME":"EARTH","NORAD_CAT_ID":"56109","LAUNCH_DATE":"2023-03-29","PERIAPSIS":"558.062","RA_OF_ASC_NODE":"202.7711","MEAN_ANOMALY":"84.7066","ECCENTRICITY":"0.00014600","MEAN_MOTION_DOT":"0.00000462"},{"SITE":"AFETR","REV_AT_EPOCH":"1135","TIME_SYSTEM":"UTC","CLASSIFICATION_TYPE":"U","SEMIMAJOR_AXIS":"6937.207","INCLINATION":"43.0013","DECAY_DATE":null,"APOAPSIS":"560.015","ELEMENT_SET_NO":"999","TLE_LINE1":"1 56110U 23046T   23162.80462186  .00000774  00000-0  72350-4 0  9996","COUNTRY_CODE":"US","OBJECT_ID":"2023-046T","CENTER_NAME":"EARTH","MEAN_MOTION_DDOT":"0.0000000000000","LAUNCH_DATE":"2023-03-29","NORAD_CAT_ID":"56110","RA_OF_ASC_NODE":"202.8092","MEAN_ANOMALY":"90.4563","PERIAPSIS":"558.129","MEAN_MOTION_DOT":"0.00000774","ECCENTRICITY":"0.00013600","EPOCH":"2023-06-11T19:18:39.328704","EPHEMERIS_TYPE":"0","OBJECT_TYPE":"PAYLOAD","FILE":"3930737","MEAN_ELEMENT_THEORY":"SGP4","REF_FRAME":"TEME","RCS_SIZE":"LARGE","GP_ID":"233728728","TLE_LINE2":"2 56110  43.0013 202.8092 0001360 269.6124  90.4563 15.02539087 11356","OBJECT_NAME":"STARLINK-6082","PERIOD":"95.838","MEAN_MOTION":"15.02539087","ARG_OF_PERICENTER":"269.6124","BSTAR":"0.00007235000000"},{"MEAN_MOTION_DOT":"0.00000896","ECCENTRICITY":"0.00014430","RA_OF_ASC_NODE":"203.7544","MEAN_ANOMALY":"84.1135","PERIAPSIS":"558.069","LAUNCH_DATE":"2023-03-29","NORAD_CAT_ID":"56111","OBJECT_ID":"2023-046U","CENTER_NAME":"EARTH","MEAN_MOTION_DDOT":"0.0000000000000","APOAPSIS":"560.071","ELEMENT_SET_NO":"999","TLE_LINE1":"1 56111U 23046U   23162.58632089  .00000896  00000-0  81385-4 0  9996","COUNTRY_CODE":"US","CLASSIFICATION_TYPE":"U","SEMIMAJOR_AXIS":"6937.205","INCLINATION":"42.9998","DECAY_DATE":null,"TIME_SYSTEM":"UTC","SITE":"AFETR","REV_AT_EPOCH":"1132","ARG_OF_PERICENTER":"275.9543","BSTAR":"0.00008138500000","MEAN_MOTION":"15.02539598","PERIOD":"95.838","GP_ID":"233729476","OBJECT_NAME":"STARLINK-6084","TLE_LINE2":"2 56111  42.9998 203.7544 0001443 275.9543  84.1135 15.02539598 11325","RCS_SIZE":"LARGE","OBJECT_TYPE":"PAYLOAD","MEAN_ELEMENT_THEORY":"SGP4","FILE":"3930737","REF_FRAME":"TEME","EPOCH":"2023-06-11T14:04:18.124896","EPHEMERIS_TYPE":"0"},{"TIME_SYSTEM":"UTC","SITE":"AFETR","REV_AT_EPOCH":"1132","APOAPSIS":"560.070","ELEMENT_SET_NO":"999","TLE_LINE1":"1 56112U 23046V   23162.59186705  .00001208  00000-0  10443-3 0  9991","COUNTRY_CODE":"US","SEMIMAJOR_AXIS":"6937.195","CLASSIFICATION_TYPE":"U","INCLINATION":"43.0007","DECAY_DATE":null,"LAUNCH_DATE":"2023-03-29","NORAD_CAT_ID":"56112","OBJECT_ID":"2023-046V","CENTER_NAME":"EARTH","MEAN_MOTION_DDOT":"0.0000000000000","MEAN_MOTION_DOT":"0.00001208","ECCENTRICITY":"0.00014560","RA_OF_ASC_NODE":"203.7941","MEAN_ANOMALY":"85.8046","PERIAPSIS":"558.050","OBJECT_TYPE":"PAYLOAD","MEAN_ELEMENT_THEORY":"SGP4","FILE":"3930737","REF_FRAME":"TEME","EPOCH":"2023-06-11T14:12:17.313120","EPHEMERIS_TYPE":"0","GP_ID":"233730226","OBJECT_NAME":"STARLINK-6080","TLE_LINE2":"2 56112  43.0007 203.7941 0001456 274.2629  85.8046 15.02543102 11326","RCS_SIZE":"LARGE","MEAN_MOTION":"15.02543102","PERIOD":"95.838","ARG_OF_PERICENTER":"274.2629","BSTAR":"0.00010443000000"},{"ARG_OF_PERICENTER":"274.5606","BSTAR":"0.00015036000000","PERIOD":"95.837","MEAN_MOTION":"15.02543861","RCS_SIZE":"LARGE","TLE_LINE2":"2 56113  43.0003 203.7413 0001498 274.5606  85.5065 15.02543861 11321","OBJECT_NAME":"STARLINK-6113","GP_ID":"233728478","EPHEMERIS_TYPE":"0","EPOCH":"2023-06-11T14:01:06.016224","REF_FRAME":"TEME","OBJECT_TYPE":"PAYLOAD","FILE":"3930737","MEAN_ELEMENT_THEORY":"SGP4","PERIAPSIS":"558.018","RA_OF_ASC_NODE":"203.7413","MEAN_ANOMALY":"85.5065","ECCENTRICITY":"0.00014980","MEAN_MOTION_DOT":"0.00001828","MEAN_MOTION_DDOT":"0.0000000000000","OBJECT_ID":"2023-046W","CENTER_NAME":"EARTH","NORAD_CAT_ID":"56113","LAUNCH_DATE":"2023-03-29","DECAY_DATE":null,"CLASSIFICATION_TYPE":"U","SEMIMAJOR_AXIS":"6937.192","INCLINATION":"43.0003","TLE_LINE1":"1 56113U 23046W   23162.58409741  .00001828  00000-0  15036-3 0  9990","ELEMENT_SET_NO":"999","COUNTRY_CODE":"US","APOAPSIS":"560.097","SITE":"AFETR","REV_AT_EPOCH":"1132","TIME_SYSTEM":"UTC"},{"OBJECT_NAME":"STARLINK-6103","TLE_LINE2":"2 56114  43.0001 202.7361 0001430 274.9056  85.1623 15.02538062 11356","GP_ID":"233729229","RCS_SIZE":"LARGE","REF_FRAME":"TEME","MEAN_ELEMENT_THEORY":"SGP4","FILE":"3930737","OBJECT_TYPE":"PAYLOAD","EPHEMERIS_TYPE":"0","EPOCH":"2023-06-11T19:04:16.107168","BSTAR":"0.00000487540000","ARG_OF_PERICENTER":"274.9056","MEAN_MOTION":"15.02538062","PERIOD":"95.838","COUNTRY_CODE":"US","TLE_LINE1":"1 56114U 23046X   23162.79463087 -.00000138  00000-0  48754-5 0  9996","ELEMENT_SET_NO":"999","APOAPSIS":"560.067","DECAY_DATE":null,"INCLINATION":"43.0001","CLASSIFICATION_TYPE":"U","SEMIMAJOR_AXIS":"6937.210","TIME_SYSTEM":"UTC","REV_AT_EPOCH":"1135","SITE":"AFETR","ECCENTRICITY":"0.00014300","MEAN_MOTION_DOT":"-0.00000138","PERIAPSIS":"558.083","MEAN_ANOMALY":"85.1623","RA_OF_ASC_NODE":"202.7361","NORAD_CAT_ID":"56114","LAUNCH_DATE":"2023-03-29","MEAN_MOTION_DDOT":"0.0000000000000","CENTER_NAME":"EARTH","OBJECT_ID":"2023-046X"},{"LAUNCH_DATE":"2023-03-29","NORAD_CAT_ID":"56115","CENTER_NAME":"EARTH","OBJECT_ID":"2023-046Y","MEAN_MOTION_DDOT":"0.0000000000000","MEAN_MOTION_DOT":"0.00000406","ECCENTRICITY":"0.00013220","MEAN_ANOMALY":"87.6008","RA_OF_ASC_NODE":"203.6995","PERIAPSIS":"558.157","TIME_SYSTEM":"UTC","REV_AT_EPOCH":"1132","SITE":"AFETR","APOAPSIS":"559.992","COUNTRY_CODE":"US","TLE_LINE1":"1 56115U 23046Y   23162.57855016  .00000406  00000-0  45139-4 0  9990","ELEMENT_SET_NO":"999","INCLINATION":"43.0009","SEMIMAJOR_AXIS":"6937.210","CLASSIFICATION_TYPE":"U","DECAY_DATE":null,"MEAN_MOTION":"15.02538265","PERIOD":"95.838","BSTAR":"0.00004513900000","ARG_OF_PERICENTER":"272.4683","MEAN_ELEMENT_THEORY":"SGP4","FILE":"3930737","OBJECT_TYPE":"PAYLOAD","REF_FRAME":"TEME","EPOCH":"2023-06-11T13:53:06.733824","EPHEMERIS_TYPE":"0","GP_ID":"233729977","TLE_LINE2":"2 56115  43.0009 203.6995 0001322 272.4683  87.6008 15.02538265 11323","OBJECT_NAME":"STARLINK-6101","RCS_SIZE":"LARGE"},{"RCS_SIZE":"LARGE","GP_ID":"233729726","OBJECT_NAME":"STARLINK-6114","TLE_LINE2":"2 56116  43.0012 203.7758 0001372 275.6600  84.4085 15.02541792 11324","EPOCH":"2023-06-11T14:09:05.537088","EPHEMERIS_TYPE":"0","MEAN_ELEMENT_THEORY":"SGP4","FILE":"3930737","OBJECT_TYPE":"PAYLOAD","REF_FRAME":"TEME","BSTAR":"0.00007663000000","ARG_OF_PERICENTER":"275.6600","PERIOD":"95.838","MEAN_MOTION":"15.02541792","INCLINATION":"43.0012","CLASSIFICATION_TYPE":"U","SEMIMAJOR_AXIS":"6937.199","DECAY_DATE":null,"APOAPSIS":"560.015","COUNTRY_CODE":"US","TLE_LINE1":"1 56116U 23046Z   23162.58964742  .00000832  00000-0  76630-4 0  9992","ELEMENT_SET_NO":"999","REV_AT_EPOCH":"1132","SITE":"AFETR","TIME_SYSTEM":"UTC","MEAN_ANOMALY":"84.4085","RA_OF_ASC_NODE":"203.7758","PERIAPSIS":"558.112","MEAN_MOTION_DOT":"0.00000832","ECCENTRICITY":"0.00013720","CENTER_NAME":"EARTH","OBJECT_ID":"2023-046Z","MEAN_MOTION_DDOT":"0.0000000000000","LAUNCH_DATE":"2023-03-29","NORAD_CAT_ID":"56116"},{"MEAN_MOTION":"15.04450582","PERIOD":"95.716","ARG_OF_PERICENTER":"266.5623","BSTAR":"0.00218400000000","REF_FRAME":"TEME","OBJECT_TYPE":"PAYLOAD","FILE":"3930646","MEAN_ELEMENT_THEORY":"SGP4","EPHEMERIS_TYPE":"0","EPOCH":"2023-06-11T22:00:00.999936","OBJECT_NAME":"STARLINK-6107","TLE_LINE2":"2 56117  42.9990 190.0702 0001531 266.5623 344.7466 15.04450582 12050","GP_ID":"233700941","RCS_SIZE":"LARGE","NORAD_CAT_ID":"56117","LAUNCH_DATE":"2023-03-29","MEAN_MOTION_DDOT":"0.0000000000000","OBJECT_ID":"2023-046AA","CENTER_NAME":"EARTH","ECCENTRICITY":"0.00015310","MEAN_MOTION_DOT":"0.00030977","PERIAPSIS":"552.134","RA_OF_ASC_NODE":"190.0702","MEAN_ANOMALY":"344.7466","TIME_SYSTEM":"UTC","SITE":"AFETR","REV_AT_EPOCH":"1205","ELEMENT_SET_NO":"999","TLE_LINE1":"1 56117U 23046AA  23162.91667824  .00030977  00000-0  21840-2 0  9995","COUNTRY_CODE":"US","APOAPSIS":"554.256","DECAY_DATE":null,"CLASSIFICATION_TYPE":"U","SEMIMAJOR_AXIS":"6931.330","INCLINATION":"42.9990"}];
